CELESTIS-17 & SHERPA-FX1
1 47486U 21006CB  26068.64311433  .00007207  00000+0  24301-3 0  9993
2 47486  97.2397 112.1052 0006630 178.1385 181.9882 15.30994801284065
STARLINK-30894          
1 58375U 23178B   26068.24231191  .00000767  00000+0  38034-4 0  9995
2 58375  53.1621   3.1013 0001149 109.9071 250.2054 15.30184445129755
