[{"OBJECT_NAME":"CELESTIS-17 & SHERPA-FX1","OBJECT_ID":"2021-006CB","EPOCH":"2026-03-09T15:26:05.078112","MEAN_MOTION":15.30994801,"ECCENTRICITY":0.000663,"INCLINATION":97.2397,"RA_OF_ASC_NODE":112.1052,"ARG_OF_PERICENTER":178.1385,"MEAN_ANOMALY":181.9882,"EPHEMERIS_TYPE":0,"CLASSIFICATION_TYPE":"U","NORAD_CAT_ID":47486,"ELEMENT_SET_NO":999,"REV_AT_EPOCH":28406,"BSTAR":0.00024301,"MEAN_MOTION_DOT":7.207e-5,"MEAN_MOTION_DDOT":0},{"OBJECT_NAME":"STARLINK-30894","OBJECT_ID":"2023-178B","EPOCH":"2026-03-09T05:48:55.749024","MEAN_MOTION":15.30184445,"ECCENTRICITY":0.00011491,"INCLINATION":53.1621,"RA_OF_ASC_NODE":3.1013,"ARG_OF_PERICENTER":109.9071,"MEAN_ANOMALY":250.2054,"EPHEMERIS_TYPE":0,"CLASSIFICATION_TYPE":"U","NORAD_CAT_ID":58375,"ELEMENT_SET_NO":999,"REV_AT_EPOCH":12975,"BSTAR":3.8033874e-5,"MEAN_MOTION_DOT":7.67e-6,"MEAN_MOTION_DDOT":0}]
